GLOBALSTAR M045         
1 25676U 99019A   25143.83237873 -.00000048  00000+0  40170-3 0  9997
2 25676  51.9992  14.6856 0000903 100.2567 340.8235 12.27062321190401
GLOBALSTAR M019         
1 25677U 99019B   25143.75276789  .00000053  00000+0  14905-2 0  9999
2 25677  51.9847 143.5574 0001364 277.5602 253.0029 12.13875239182176
GLOBALSTAR M044         
1 25678U 99019C   25143.81622593 -.00000072  00000+0  15694-3 0  9994
2 25678  51.9961  91.6923 0006538 355.6711  18.7513 11.90250254168426
GLOBALSTAR M042         
1 25679U 99019D   25143.92523543 -.00000084  00000+0  81110-4 0  9992
2 25679  51.9991 119.4445 0002817 254.3381 122.5296 12.22083000182294
GLOBALSTAR M025         
1 25770U 99031A   25143.93424817 -.00000061  00000+0  18948-3 0  9996
2 25770  51.9798 215.4564 0001801 124.6799  46.3755 11.22558045478986
GLOBALSTAR M049         
1 25771U 99031B   25143.72133691  .00000008  00000+0  25302-2 0  9992
2 25771  51.9873 249.4836 0002137 328.9910  31.0760 11.12114871114705
GLOBALSTAR M047         
1 25772U 99031C   25143.68812488 -.00000075  00000+0 -16047-3 0  9999
2 25772  51.9829 248.8685 0016707 218.9848 140.9754 11.31928197468337
